{
  "type": "FeatureCollection",
  "features": [
    {
      "type": "Feature",
      "properties": {
        "norad_id": 38091,
        "name": "BEIDOU-2 G5 (C05)",
        "group": "gnss",
        "lat": -0.24150203451174576,
        "lon": 65.869444397863,
        "alt_km": 35816.775568437915,
        "timestamp": "2025-12-14T18:52:55.745753+00:00",
        "meta_object_name": "BEIDOU-2 G5 (C05)",
        "meta_object_id": "2012-008A",
        "meta_epoch": "2025-12-14T00:00:07.426080",
        "meta_mean_motion": 1.00276224,
        "meta_eccentricity": 0.001255,
        "meta_inclination": 3.1127,
        "meta_ra_of_asc_node": 70.708,
        "meta_arg_of_pericenter": 228.1949,
        "meta_mean_anomaly": 202.8627,
        "meta_ephemeris_type": 0,
        "meta_classification_type": "U",
        "meta_norad_cat_id": 38091,
        "meta_element_set_no": 999,
        "meta_rev_at_epoch": 5051,
        "meta_bstar": 0,
        "meta_mean_motion_dot": 7.1e-07,
        "meta_mean_motion_ddot": 0,
        "tle_line1": "1 38091U 12008A   25348.00008595  .00000071  00000+0  00000+0 0  9997",
        "tle_line2": "2 38091   3.1127  70.7080 0012550 228.1949 202.8627  1.00276224 50519"
      },
      "geometry": {
        "type": "Point",
        "coordinates": [
          65.869444397863,
          -0.24150203451174576
        ]
      }
    },
    {
      "type": "Feature",
      "properties": {
        "norad_id": 38250,
        "name": "BEIDOU-2 M3 (C11)",
        "group": "gnss",
        "lat": -23.27102140248009,
        "lon": 147.98767771705118,
        "alt_km": 21503.490305425403,
        "timestamp": "2025-12-14T18:52:55.745765+00:00",
        "meta_object_name": "BEIDOU-2 M3 (C11)",
        "meta_object_id": "2012-018A",
        "meta_epoch": "2025-12-13T09:37:38.892576",
        "meta_mean_motion": 1.86229834,
        "meta_eccentricity": 0.0024285,
        "meta_inclination": 55.9192,
        "meta_ra_of_asc_node": 311.1346,
        "meta_arg_of_pericenter": 274.3126,
        "meta_mean_anomaly": 85.3992,
        "meta_ephemeris_type": 0,
        "meta_classification_type": "U",
        "meta_norad_cat_id": 38250,
        "meta_element_set_no": 999,
        "meta_rev_at_epoch": 9248,
        "meta_bstar": 0,
        "meta_mean_motion_dot": -9.5e-07,
        "meta_mean_motion_ddot": 0,
        "tle_line1": "1 38250U 12018A   25347.40114459 -.00000095  00000+0  00000+0 0  9992",
        "tle_line2": "2 38250  55.9192 311.1346 0024285 274.3126  85.3992  1.86229834 92488"
      },
      "geometry": {
        "type": "Point",
        "coordinates": [
          147.98767771705118,
          -23.27102140248009
        ]
      }
    },
    {
      "type": "Feature",
      "properties": {
        "norad_id": 38251,
        "name": "BEIDOU-2 M4 (C12)",
        "group": "gnss",
        "lat": -52.79199969677083,
        "lon": -166.25929252887562,
        "alt_km": 21494.26608875204,
        "timestamp": "2025-12-14T18:52:55.745776+00:00",
        "meta_object_name": "BEIDOU-2 M4 (C12)",
        "meta_object_id": "2012-018B",
        "meta_epoch": "2025-12-13T07:59:48.422112",
        "meta_mean_motion": 1.86229462,
        "meta_eccentricity": 0.00154528,
        "meta_inclination": 55.8208,
        "meta_ra_of_asc_node": 310.3658,
        "meta_arg_of_pericenter": 277.4494,
        "meta_mean_anomaly": 82.3644,
        "meta_ephemeris_type": 0,
        "meta_classification_type": "U",
        "meta_norad_cat_id": 38251,
        "meta_element_set_no": 999,
        "meta_rev_at_epoch": 9248,
        "meta_bstar": 0,
        "meta_mean_motion_dot": -9.5e-07,
        "meta_mean_motion_ddot": 0,
        "tle_line1": "1 38251U 12018B   25347.33319933 -.00000095  00000+0  00000+0 0  9999",
        "tle_line2": "2 38251  55.8208 310.3658 0015452 277.4494  82.3644  1.86229462 92489"
      },
      "geometry": {
        "type": "Point",
        "coordinates": [
          -166.25929252887562,
          -52.79199969677083
        ]
      }
    },
    {
      "type": "Feature",
      "properties": {
        "norad_id": 38652,
        "name": "SES-5 (EGNOS/PRN 136)",
        "group": "gnss",
        "lat": 0.06464750385608195,
        "lon": 11.921507821495942,
        "alt_km": 35788.2174157909,
        "timestamp": "2025-12-14T18:52:55.745788+00:00",
        "meta_object_name": "SES-5 (EGNOS/PRN 136)",
        "meta_object_id": "2012-036A",
        "meta_epoch": "2025-12-13T22:23:38.652000",
        "meta_mean_motion": 1.00271859,
        "meta_eccentricity": 0.00020267,
        "meta_inclination": 0.0568,
        "meta_ra_of_asc_node": 305.258,
        "meta_arg_of_pericenter": 321.7228,
        "meta_mean_anomaly": 156.765,
        "meta_ephemeris_type": 0,
        "meta_classification_type": "U",
        "meta_norad_cat_id": 38652,
        "meta_element_set_no": 999,
        "meta_rev_at_epoch": 4260,
        "meta_bstar": 0,
        "meta_mean_motion_dot": 5e-07,
        "meta_mean_motion_ddot": 0,
        "tle_line1": "1 38652U 12036A   25347.93308625  .00000050  00000+0  00000+0 0  9996",
        "tle_line2": "2 38652   0.0568 305.2580 0002026 321.7228 156.7650  1.00271859 42608"
      },
      "geometry": {
        "type": "Point",
        "coordinates": [
          11.921507821495942,
          0.06464750385608195
        ]
      }
    },
    {
      "type": "Feature",
      "properties": {
        "norad_id": 38775,
        "name": "BEIDOU-2 M6 (C14)",
        "group": "gnss",
        "lat": 56.37032284880996,
        "lon": 156.25995790135644,
        "alt_km": 21528.98023254429,
        "timestamp": "2025-12-14T18:52:55.745800+00:00",
        "meta_object_name": "BEIDOU-2 M6 (C14)",
        "meta_object_id": "2012-050B",
        "meta_epoch": "2025-12-11T10:23:51.015840",
        "meta_mean_motion": 1.86230797,
        "meta_eccentricity": 0.00111593,
        "meta_inclination": 56.3773,
        "meta_ra_of_asc_node": 69.1107,
        "meta_arg_of_pericenter": 344.6089,
        "meta_mean_anomaly": 15.3783,
        "meta_ephemeris_type": 0,
        "meta_classification_type": "U",
        "meta_norad_cat_id": 38775,
        "meta_element_set_no": 999,
        "meta_rev_at_epoch": 8981,
        "meta_bstar": 0,
        "meta_mean_motion_dot": -6.3e-07,
        "meta_mean_motion_ddot": 0,
        "tle_line1": "1 38775U 12050B   25345.43322935 -.00000063  00000+0  00000+0 0  9996",
        "tle_line2": "2 38775  56.3773  69.1107 0011159 344.6089  15.3783  1.86230797 89814"
      },
      "geometry": {
        "type": "Point",
        "coordinates": [
          156.25995790135644,
          56.37032284880996
        ]
      }
    },
    {
      "type": "Feature",
      "properties": {
        "norad_id": 38779,
        "name": "GSAT-10 (GAGAN/PRN 128)",
        "group": "gnss",
        "lat": 0.011968573217971913,
        "lon": 89.9150051616498,
        "alt_km": 35777.682407024535,
        "timestamp": "2025-12-14T18:52:55.745812+00:00",
        "meta_object_name": "GSAT-10 (GAGAN/PRN 128)",
        "meta_object_id": "2012-051B",
        "meta_epoch": "2025-12-13T22:24:16.606656",
        "meta_mean_motion": 1.00273052,
        "meta_eccentricity": 0.00024834,
        "meta_inclination": 0.0866,
        "meta_ra_of_asc_node": 266.1544,
        "meta_arg_of_pericenter": 223.3714,
        "meta_mean_anomaly": 12.4094,
        "meta_ephemeris_type": 0,
        "meta_classification_type": "U",
        "meta_norad_cat_id": 38779,
        "meta_element_set_no": 999,
        "meta_rev_at_epoch": 4824,
        "meta_bstar": 0,
        "meta_mean_motion_dot": -1.49e-06,
        "meta_mean_motion_ddot": 0,
        "tle_line1": "1 38779U 12051B   25347.93352554 -.00000149  00000+0  00000+0 0  9993",
        "tle_line2": "2 38779   0.0866 266.1544 0002483 223.3714  12.4094  1.00273052 48241"
      },
      "geometry": {
        "type": "Point",
        "coordinates": [
          89.9150051616498,
          0.011968573217971913
        ]
      }
    },
    {
      "type": "Feature",
      "properties": {
        "norad_id": 38833,
        "name": "GPS BIIF-3  (PRN 24)",
        "group": "gnss",
        "lat": -32.92289186995318,
        "lon": 122.5539898822383,
        "alt_km": 20311.69433123702,
        "timestamp": "2025-12-14T18:52:55.745826+00:00",
        "meta_object_name": "GPS BIIF-3  (PRN 24)",
        "meta_object_id": "2012-053A",
        "meta_epoch": "2025-12-13T20:21:34.724448",
        "meta_mean_motion": 2.00565042,
        "meta_eccentricity": 0.01758819,
        "meta_inclination": 53.5579,
        "meta_ra_of_asc_node": 151.1931,
        "meta_arg_of_pericenter": 64.0051,
        "meta_mean_anomaly": 297.7998,
        "meta_ephemeris_type": 0,
        "meta_classification_type": "U",
        "meta_norad_cat_id": 38833,
        "meta_element_set_no": 999,
        "meta_rev_at_epoch": 9572,
        "meta_bstar": 0,
        "meta_mean_motion_dot": 9.2e-07,
        "meta_mean_motion_ddot": 0,
        "tle_line1": "1 38833U 12053A   25347.84831857  .00000092  00000+0  00000+0 0  9990",
        "tle_line2": "2 38833  53.5579 151.1931 0175881  64.0051 297.7998  2.00565042 95726"
      },
      "geometry": {
        "type": "Point",
        "coordinates": [
          122.5539898822383,
          -32.92289186995318
        ]
      }
    }
  ]
}